CZ-4B R/B               
1 28059U 03049C   16154.18998293  .00000024  00000-0  17918-4 0  9992
2 28059  98.6142  25.3811 0049581 326.7704 141.9659 14.52444387668515
CZ-2C R/B               
1 28222U 04012C   16154.05524661  .00001469  00000-0  95582-4 0  9992
2 28222  97.4731 113.2458 0050647  50.5744  12.7096 15.08479488663295
SL-16 R/B               
1 28353U 04021B   16154.17031386  .00000141  00000-0  99097-4 0  9998
2 28353  71.0000 155.4082 0003545  34.9034 325.2320 14.14182783618434
CZ-2C R/B               
1 28480U 04046B   16153.34693550  .00000054  00000-0  36679-4 0  9991
2 28480  98.1804 268.2986 0140828 268.5100 156.0156 14.25592926599978
ARIANE 5 R/B            
1 28499U 04049H   16153.83685355  .00000097  00000-0  19531-4 0  9997
2 28499  98.1104 227.9482 0092684   4.0470 109.2192 14.79697139617740
CZ-2D R/B               
1 28738U 05024B   16153.84651104  .00001018  00000-0  65558-4 0  9997
2 28738  97.5431 191.1749 0011178 227.0256 133.0037 15.10541578598380
SUZAKU (ASTRO-EII)      
1 28773U 05025A   16153.64994281  .00001446  00000-0  71543-4 0  9997
2 28773  31.3826 242.2215 0004735 132.2469 227.8579 15.14772296599586
ALOS (DAICHI)           
1 28931U 06002A   16153.54509789  .00000357  00000-0  79599-4 0  9992
2 28931  97.8861 193.0424 0002487  85.9860 274.1628 14.62194257551837
H-2A R/B                
1 28932U 06002B   16154.36239363  .00000811  00000-0  82199-4 0  9997
2 28932  98.2163  56.0357 0092058 115.2337  20.9736 14.90889365561201
AKARI (ASTRO-F)         
1 28939U 06005A   16153.76352419  .00004858  00000-0  16099-3 0  9998
2 28939  98.2385 308.7926 0115622  63.2227 298.0782 15.25570647555050
RESURS-DK 1             
1 29228U 06021A   16154.38447945  .00000405  00000-0  38384-4 0  9992
2 29228  69.9382 344.2084 0006944 224.8794 135.1824 15.01913608551072
GENESIS 1               
1 29252U 06029A   16153.90724825  .00000944  00000-0  58896-4 0  9997
2 29252  64.5059  86.7988 0032633 228.9725 195.4562 15.16009955544173
CZ-4B R/B               
1 29507U 06046C   16154.08216743  .00001152  00000-0  96534-4 0  9997
2 29507  97.7834 155.3694 0043265 105.4726 255.1281 14.99723495524065
CZ-2C R/B               
1 31114U 07010B   16154.33870436 -.00000007  00000-0  16234-4 0  9997
2 31114  98.4145  70.0993 0058718 237.4758 122.0737 14.19205585473631
COSMO-SKYMED 1          
1 31598U 07023A   16154.42799964 -.00001321  00000-0 -15944-3 0  9990
2 31598  97.8754 338.0651 0001475  80.7835 279.3592 14.82152414486199
GENESIS 2               
1 31789U 07028A   16154.21731163  .00001159  00000-0  70112-4 0  9997
2 31789  64.5036 122.4086 0052842 268.8814  90.6253 15.15262518491314
COSMOS 2428             
1 31792U 07029A   16154.38544017  .00000137  00000-0  10000-3 0  9994
2 31792  70.9398 129.2856 0006645 129.7233  29.4576 14.12378265460441
SL-16 R/B               
1 31793U 07029B   16154.38511169 -.00000196  00000-0 -77674-4 0  9995
2 31793  70.9746 106.9274 0002335 277.0361 229.6851 14.14357313461013
KORONAS-FOTON           
1 33504U 09003A   16154.41817976  .00001275  00000-0  67660-4 0  9991
2 33504  82.4440 250.2046 0019170 346.6045  13.4675 15.14320305403999
TIANGONG 1              
1 37820U 11053A   16154.42943789  .00014800  00000-0  16304-3 0  9993
2 37820  42.7648 335.5622 0014930 300.1139 140.3394 15.62788268268275
CZ-3B R/B               
1 38253U 12018D   16154.29745656  .00376580  54846-6  10334-2 0  9999
2 38253  54.9604 244.0511 3564662 190.8737 158.8589  8.47098072 89720
H-2A R/B                
1 38341U 12025E   16154.15407552  .00000293  00000-0  42611-4 0  9997
2 38341  98.4811 202.9280 0055007 300.3786  59.1995 14.83320510218533
CZ-2C R/B               
1 39000U 12064D   16154.43120576  .00236723  26624-4  36793-3 0  9998
2 39000  97.2607 198.5919 0003843 184.9932 175.1311 16.04139065199767
CUSAT 2 & FALCON 9 R/B  
1 39271U 13055G   16153.85052049  .00004238  00000-0  11466-3 0  9993
2 39271  80.9729  37.6595 0656973 242.4886 110.8074 14.31168997138107
ASTRO-H (HITOMI)        
1 41337U 16012A   16153.02836716  .00000483  00000-0  32846-4 0  9999
2 41337  31.0064  13.6825 0012627 237.3996 122.5421 14.98062803 15718
